{"type": "FeatureCollection", "features": [{"type": "Feature", "properties": {"norad_id": 22490, "name": "SCD 1", "group": "resource", "lat": -21.497821836676394, "lon": -178.27943936976035, "alt_km": 716.7407364850187, "timestamp": "2025-12-08T15:42:49.434652+00:00", "meta": {"OBJECT_NAME": "SCD 1", "OBJECT_ID": "1993-009B", "EPOCH": "2025-12-08T04:46:20.891424", "MEAN_MOTION": 14.45993612, "ECCENTRICITY": 0.00417282, "INCLINATION": 24.9706, "RA_OF_ASC_NODE": 306.7182, "ARG_OF_PERICENTER": 276.7262, "MEAN_ANOMALY": 105.8807, "EPHEMERIS_TYPE": 0, "CLASSIFICATION_TYPE": "U", "NORAD_CAT_ID": 22490, "ELEMENT_SET_NO": 999, "REV_AT_EPOCH": 73344, "BSTAR": 0.00015229615, "MEAN_MOTION_DOT": 7.43e-06, "MEAN_MOTION_DDOT": 0}, "tle": {"line1": "1 22490U 93009B   25342.19885291  .00000743  00000+0  15230-3 0  9994", "line2": "2 22490  24.9706 306.7182 0041728 276.7262 105.8807 14.45993612733442"}}, "geometry": {"type": "Point", "coordinates": [-178.27943936976035, -21.497821836676394]}}, {"type": "Feature", "properties": {"norad_id": 25397, "name": "TECHSAT 1B (GO-32)", "group": "resource", "lat": 64.4363105693176, "lon": 165.10208620337139, "alt_km": 803.2900594443972, "timestamp": "2025-12-08T15:42:49.434679+00:00", "meta": {"OBJECT_NAME": "TECHSAT 1B (GO-32)", "OBJECT_ID": "1998-043D", "EPOCH": "2025-12-07T22:19:18.226848", "MEAN_MOTION": 14.24374862, "ECCENTRICITY": 0.00021662, "INCLINATION": 98.9914, "RA_OF_ASC_NODE": 325.0312, "ARG_OF_PERICENTER": 64.9459, "MEAN_ANOMALY": 295.1944, "EPHEMERIS_TYPE": 0, "CLASSIFICATION_TYPE": "U", "NORAD_CAT_ID": 25397, "ELEMENT_SET_NO": 999, "REV_AT_EPOCH": 42410, "BSTAR": 8.8595403e-05, "MEAN_MOTION_DOT": 1.58e-06, "MEAN_MOTION_DDOT": 0}, "tle": {"line1": "1 25397U 98043D   25341.93007207  .00000158  00000+0  88595-4 0  9995", "line2": "2 25397  98.9914 325.0312 0002166  64.9459 295.1944 14.24374862424102"}}, "geometry": {"type": "Point", "coordinates": [165.10208620337139, 64.4363105693176]}}, {"type": "Feature", "properties": {"norad_id": 25504, "name": "SCD 2", "group": "resource", "lat": -24.47206031970772, "lon": 89.40493619755622, "alt_km": 729.6602565987178, "timestamp": "2025-12-08T15:42:49.434694+00:00", "meta": {"OBJECT_NAME": "SCD 2", "OBJECT_ID": "1998-060A", "EPOCH": "2025-12-07T22:22:24.926016", "MEAN_MOTION": 14.45418977, "ECCENTRICITY": 0.00165909, "INCLINATION": 24.9932, "RA_OF_ASC_NODE": 171.541, "ARG_OF_PERICENTER": 262.1485, "MEAN_ANOMALY": 211.8207, "EPHEMERIS_TYPE": 0, "CLASSIFICATION_TYPE": "U", "NORAD_CAT_ID": 25504, "ELEMENT_SET_NO": 999, "REV_AT_EPOCH": 43262, "BSTAR": 0.00011368639, "MEAN_MOTION_DOT": 5.89e-06, "MEAN_MOTION_DDOT": 0}, "tle": {"line1": "1 25504U 98060A   25341.93223294  .00000589  00000+0  11369-3 0  9992", "line2": "2 25504  24.9932 171.5410 0016590 262.1485 211.8207 14.45418977432623"}}, "geometry": {"type": "Point", "coordinates": [89.40493619755622, -24.47206031970772]}}, {"type": "Feature", "properties": {"norad_id": 25757, "name": "DLR-TUBSAT", "group": "resource", "lat": -75.56587507550877, "lon": 3.329436515250013, "alt_km": 722.9120274294364, "timestamp": "2025-12-08T15:42:49.434707+00:00", "meta": {"OBJECT_NAME": "DLR-TUBSAT", "OBJECT_ID": "1999-029B", "EPOCH": "2025-12-07T21:53:12.091200", "MEAN_MOTION": 14.52354641, "ECCENTRICITY": 0.00136293, "INCLINATION": 98.6558, "RA_OF_ASC_NODE": 326.2768, "ARG_OF_PERICENTER": 207.9079, "MEAN_ANOMALY": 152.1385, "EPHEMERIS_TYPE": 0, "CLASSIFICATION_TYPE": "U", "NORAD_CAT_ID": 25757, "ELEMENT_SET_NO": 999, "REV_AT_EPOCH": 40548, "BSTAR": 7.1887537e-05, "MEAN_MOTION_DOT": 2.44e-06, "MEAN_MOTION_DDOT": 0}, "tle": {"line1": "1 25757U 99029B   25341.91194550  .00000244  00000+0  71888-4 0  9999", "line2": "2 25757  98.6558 326.2768 0013629 207.9079 152.1385 14.52354641405489"}}, "geometry": {"type": "Point", "coordinates": [3.329436515250013, -75.56587507550877]}}, {"type": "Feature", "properties": {"norad_id": 25994, "name": "TERRA", "group": "resource", "lat": -39.10268142238875, "lon": -152.05368799731917, "alt_km": 697.6030024748216, "timestamp": "2025-12-08T15:42:49.434720+00:00", "meta": {"OBJECT_NAME": "TERRA", "OBJECT_ID": "1999-068A", "EPOCH": "2025-12-08T06:47:17.564352", "MEAN_MOTION": 14.60945303, "ECCENTRICITY": 0.00035232, "INCLINATION": 97.9754, "RA_OF_ASC_NODE": 34.1308, "ARG_OF_PERICENTER": 106.7853, "MEAN_ANOMALY": 317.8521, "EPHEMERIS_TYPE": 0, "CLASSIFICATION_TYPE": "U", "NORAD_CAT_ID": 25994, "ELEMENT_SET_NO": 999, "REV_AT_EPOCH": 38173, "BSTAR": 0.00021367439, "MEAN_MOTION_DOT": 1.002e-05, "MEAN_MOTION_DDOT": 0}, "tle": {"line1": "1 25994U 99068A   25342.28284218  .00001002  00000+0  21367-3 0  9996", "line2": "2 25994  97.9754  34.1308 0003523 106.7853 317.8521 14.60945303381738"}}, "geometry": {"type": "Point", "coordinates": [-152.05368799731917, -39.10268142238875]}}, {"type": "Feature", "properties": {"norad_id": 27004, "name": "MAROC-TUBSAT", "group": "resource", "lat": 76.80818531597141, "lon": 18.4777156541018, "alt_km": 1005.313779187506, "timestamp": "2025-12-08T15:42:49.434732+00:00", "meta": {"OBJECT_NAME": "MAROC-TUBSAT", "OBJECT_ID": "2001-056D", "EPOCH": "2025-12-08T05:36:12.688416", "MEAN_MOTION": 13.70252551, "ECCENTRICITY": 0.00190832, "INCLINATION": 99.7912, "RA_OF_ASC_NODE": 150.5996, "ARG_OF_PERICENTER": 272.1195, "MEAN_ANOMALY": 269.8203, "EPHEMERIS_TYPE": 0, "CLASSIFICATION_TYPE": "U", "NORAD_CAT_ID": 27004, "ELEMENT_SET_NO": 999, "REV_AT_EPOCH": 20003, "BSTAR": 3.9035772e-05, "MEAN_MOTION_DOT": -1.2e-07, "MEAN_MOTION_DDOT": 0}, "tle": {"line1": "1 27004U 01056D   25342.23348019 -.00000012  00000+0  39036-4 0  9999", "line2": "2 27004  99.7912 150.5996 0019083 272.1195 269.8203 13.70252551200031"}}, "geometry": {"type": "Point", "coordinates": [18.4777156541018, 76.80818531597141]}}, {"type": "Feature", "properties": {"norad_id": 27424, "name": "AQUA", "group": "resource", "lat": 77.7682758822847, "lon": -99.52231411242151, "alt_km": 679.5209800504326, "timestamp": "2025-12-08T15:42:49.434743+00:00", "meta": {"OBJECT_NAME": "AQUA", "OBJECT_ID": "2002-022A", "EPOCH": "2025-12-08T05:57:43.407648", "MEAN_MOTION": 14.61793408, "ECCENTRICITY": 9.246e-05, "INCLINATION": 98.4031, "RA_OF_ASC_NODE": 303.0546, "ARG_OF_PERICENTER": 113.3765, "MEAN_ANOMALY": 350.7525, "EPHEMERIS_TYPE": 0, "CLASSIFICATION_TYPE": "U", "NORAD_CAT_ID": 27424, "ELEMENT_SET_NO": 999, "REV_AT_EPOCH": 25537, "BSTAR": 0.00043677207, "MEAN_MOTION_DOT": 2.131e-05, "MEAN_MOTION_DDOT": 0}, "tle": {"line1": "1 27424U 02022A   25342.24841907  .00002131  00000+0  43677-3 0  9992", "line2": "2 27424  98.4031 303.0546 0000924 113.3765 350.7525 14.61793408255370"}}, "geometry": {"type": "Point", "coordinates": [-99.52231411242151, 77.7682758822847]}}, {"type": "Feature", "properties": {"norad_id": 28051, "name": "IRS-P6 (RESOURCESAT-1)", "group": "resource", "lat": -35.65431507693888, "lon": 29.201989610857616, "alt_km": 807.6364663013483, "timestamp": "2025-12-08T15:42:49.434753+00:00", "meta": {"OBJECT_NAME": "IRS-P6 (RESOURCESAT-1)", "OBJECT_ID": "2003-046A", "EPOCH": "2025-12-08T06:26:42.700992", "MEAN_MOTION": 14.36072031, "ECCENTRICITY": 0.00639432, "INCLINATION": 98.2184, "RA_OF_ASC_NODE": 22.8828, "ARG_OF_PERICENTER": 194.1261, "MEAN_ANOMALY": 293.9534, "EPHEMERIS_TYPE": 0, "CLASSIFICATION_TYPE": "U", "NORAD_CAT_ID": 28051, "ELEMENT_SET_NO": 999, "REV_AT_EPOCH": 15312, "BSTAR": 0.000151569, "MEAN_MOTION_DOT": 4.1e-06, "MEAN_MOTION_DDOT": 0}, "tle": {"line1": "1 28051U 03046A   25342.26854978  .00000410  00000+0  15157-3 0  9990", "line2": "2 28051  98.2184  22.8828 0063943 194.1261 293.9534 14.36072031153123"}}, "geometry": {"type": "Point", "coordinates": [29.201989610857616, -35.65431507693888]}}, {"type": "Feature", "properties": {"norad_id": 28220, "name": "SHIYAN-1 (SY-1)", "group": "resource", "lat": -72.00250373793077, "lon": 69.23381572403588, "alt_km": 486.8393498456762, "timestamp": "2025-12-08T15:42:49.434764+00:00", "meta": {"OBJECT_NAME": "SHIYAN-1 (SY-1)", "OBJECT_ID": "2004-012A", "EPOCH": "2025-12-08T03:27:43.909344", "MEAN_MOTION": 15.27962186, "ECCENTRICITY": 0.00059298, "INCLINATION": 97.8934, "RA_OF_ASC_NODE": 43.4119, "ARG_OF_PERICENTER": 343.3198, "MEAN_ANOMALY": 16.7844, "EPHEMERIS_TYPE": 0, "CLASSIFICATION_TYPE": "U", "NORAD_CAT_ID": 28220, "ELEMENT_SET_NO": 999, "REV_AT_EPOCH": 18186, "BSTAR": 0.00060079939, "MEAN_MOTION_DOT": 0.00016338, "MEAN_MOTION_DDOT": 0}, "tle": {"line1": "1 28220U 04012A   25342.14425821  .00016338  00000+0  60080-3 0  9991", "line2": "2 28220  97.8934  43.4119 0005929 343.3198  16.7844 15.27962186181865"}}, "geometry": {"type": "Point", "coordinates": [69.23381572403588, -72.00250373793077]}}, {"type": "Feature", "properties": {"norad_id": 28376, "name": "AURA", "group": "resource", "lat": -44.58824760869864, "lon": 104.57080416215317, "alt_km": 697.4322751485761, "timestamp": "2025-12-08T15:42:49.434775+00:00", "meta": {"OBJECT_NAME": "AURA", "OBJECT_ID": "2004-026A", "EPOCH": "2025-12-08T06:28:03.982656", "MEAN_MOTION": 14.60931313, "ECCENTRICITY": 0.00011667, "INCLINATION": 98.3179, "RA_OF_ASC_NODE": 292.4755, "ARG_OF_PERICENTER": 92.9801, "MEAN_ANOMALY": 267.1533, "EPHEMERIS_TYPE": 0, "CLASSIFICATION_TYPE": "U", "NORAD_CAT_ID": 28376, "ELEMENT_SET_NO": 999, "REV_AT_EPOCH": 13833, "BSTAR": 0.00044565954, "MEAN_MOTION_DOT": 2.135e-05, "MEAN_MOTION_DDOT": 0}, "tle": {"line1": "1 28376U 04026A   25342.26949054  .00002135  00000+0  44566-3 0  9991", "line2": "2 28376  98.3179 292.4755 0001166  92.9801 267.1533 14.60931313138338"}}, "geometry": {"type": "Point", "coordinates": [104.57080416215317, -44.58824760869864]}}]}